[{"OBJECT_NAME":"RASAT","OBJECT_ID":"2011-044D","EPOCH":"2026-03-09T22:51:46.950336","MEAN_MOTION":14.68056816,"ECCENTRICITY":0.00213517,"INCLINATION":98.0555,"RA_OF_ASC_NODE":161.8881,"ARG_OF_PERICENTER":144.0849,"MEAN_ANOMALY":327.0051,"EPHEMERIS_TYPE":0,"CLASSIFICATION_TYPE":"U","NORAD_CAT_ID":37791,"ELEMENT_SET_NO":999,"REV_AT_EPOCH":77862,"BSTAR":0.00012728627,"MEAN_MOTION_DOT":6.84e-6,"MEAN_MOTION_DDOT":0},{"OBJECT_NAME":"CZ-6A DEB","OBJECT_ID":"2024-140GA","EPOCH":"2026-03-09T12:43:04.460736","MEAN_MOTION":14.53646129,"ECCENTRICITY":0.01116027,"INCLINATION":88.9535,"RA_OF_ASC_NODE":279.2826,"ARG_OF_PERICENTER":235.0625,"MEAN_ANOMALY":124.0062,"EPHEMERIS_TYPE":0,"CLASSIFICATION_TYPE":"U","NORAD_CAT_ID":60799,"ELEMENT_SET_NO":999,"REV_AT_EPOCH":8344,"BSTAR":0.00012881047,"MEAN_MOTION_DOT":6.02e-6,"MEAN_MOTION_DDOT":0}]
